NORAD_CAT_ID,OBJECT_NAME,OBJECT_TYPE,EPOCH,MEAN_MOTION,ECCENTRICITY,INCLINATION,RA_OF_ASC_NODE,ARG_OF_PERICENTER,MEAN_ANOMALY,BSTAR,MEAN_MOTION_DOT,MEAN_MOTION_DDOT,TLE_LINE0,TLE_LINE1,TLE_LINE2,SEMIMAJOR_AXIS,PERIOD,APOGEE,PERIGEE,DECAYED
51778.0,STARLINK-3615,PAYLOAD,2023-06-12 15:30:09,15.08837202,0.0001117,53.2162,142.8533,80.4129,279.6989,-8.2343e-06,-4.19e-06,0.0,0 STARLINK-3615,1 51778U 22017L   23163.64594749 -.00000419  00000-0 -82343-5 0  9994,2 51778  53.2162 142.8533 0001117  80.4129 279.6989 15.08837202 73083,6917.889,95.438,540.527,538.981,0.0
51778.0,STARLINK-3615,PAYLOAD,2023-06-13 08:59:24,15.08836986,0.0001103,53.216,139.583,85.5551,274.5567,4.7055e-05,4.61e-06,0.0,0 STARLINK-3615,1 51778U 22017L   23164.37458849  .00000461  00000-0  47055-4 0  9990,2 51778  53.2160 139.5830 0001103  85.5551 274.5567 15.08836986 71547,6917.89,95.438,540.518,538.992,0.0
51778.0,STARLINK-3615,PAYLOAD,2023-06-14 10:25:34,15.08842849,0.000112,53.2158,134.8251,91.5553,268.5567,5.3903e-05,5.7e-06,0.0,0 STARLINK-3615,1 51778U 22017L   23165.43442510  .00000570  00000-0  53903-4 0  9996,2 51778  53.2158 134.8251 0001120  91.5553 268.5567 15.08842849 73356,6917.872,95.437,540.511,538.962,0.0
51778.0,STARLINK-3615,PAYLOAD,2023-06-15 03:54:50,15.08829609,0.0001317,53.216,131.5538,91.1049,269.0094,8.4968e-06,-1.53e-06,0.0,0 STARLINK-3615,1 51778U 22017L   23166.16307872 -.00000153  00000-0  84968-5 0  9992,2 51778  53.2160 131.5538 0001317  91.1049 269.0094 15.08829609 73467,6917.912,95.438,540.688,538.866,0.0
51778.0,STARLINK-3615,PAYLOAD,2023-06-15 10:16:22,15.08834945,0.0001282,53.2164,130.3641,93.3193,266.7946,2.2885e-05,7.6e-07,0.0,0 STARLINK-3615,1 51778U 22017L   23166.42803611  .00000076  00000-0  22885-4 0  9995,2 51778  53.2164 130.3641 0001282  93.3193 266.7946 15.08834945 71858,6917.896,95.438,540.648,538.874,0.0
51778.0,STARLINK-3615,PAYLOAD,2023-06-16 03:45:35,15.08850402,0.0001188,53.2162,127.0928,91.0058,269.107,7.9303e-05,9.75e-06,0.0,0 STARLINK-3615,1 51778U 22017L   23167.15666390  .00000975  00000-0  79303-4 0  9992,2 51778  53.2162 127.0928 0001188  91.0058 269.1070 15.08850402 73614,6917.849,95.437,540.535,538.892,0.0
51778.0,STARLINK-3615,PAYLOAD,2023-06-16 14:53:17,15.08849091,0.0001244,53.2163,125.0114,101.3825,258.7307,8.1918e-05,1.016e-05,0.0,0 STARLINK-3615,1 51778U 22017L   23167.62034206  .00001016  00000-0  81918-4 0  9991,2 51778  53.2163 125.0114 0001244 101.3825 258.7307 15.08849091 72034,6917.853,95.437,540.578,538.857,0.0
51778.0,STARLINK-3615,PAYLOAD,2023-06-17 03:36:22,15.0884388,0.000139,53.2162,122.6323,95.4652,264.6499,0.0001143,1.532e-05,0.0,0 STARLINK-3615,1 51778U 22017L   23168.15026415  .00001532  00000-0  11430-3 0  9997,2 51778  53.2162 122.6323 0001390  95.4652 264.6499 15.08843880 73760,6917.869,95.437,540.695,538.772,0.0
51778.0,STARLINK-3615,PAYLOAD,2023-06-17 06:47:08,15.08846605,0.0001252,53.2165,122.0383,94.0931,266.0204,0.00012827,1.754e-05,0.0,0 STARLINK-3615,1 51778U 22017L   23168.28274198  .00001754  00000-0  12827-3 0  9991,2 51778  53.2165 122.0383 0001252  94.0931 266.0204 15.08846605 72133,6917.86,95.437,540.591,538.859,0.0
51778.0,STARLINK-3615,PAYLOAD,2023-06-17 21:05:38,15.08830512,0.0001444,53.216,119.3613,90.0317,270.084,-0.00010947,-2.029e-05,0.0,0 STARLINK-3615,1 51778U 22017L   23168.87892174 -.00002029  00000-0 -10947-3 0  9995,2 51778  53.2160 119.3613 0001444  90.0317 270.0840 15.08830512 72221,6917.909,95.438,540.773,538.775,0.0
51778.0,STARLINK-3615,PAYLOAD,2023-06-18 03:27:11,15.08829398,0.0001441,53.2161,118.1722,90.6622,269.4535,-0.00011815,-2.167e-05,0.0,0 STARLINK-3615,1 51778U 22017L   23169.14388410 -.00002167  00000-0 -11815-3 0  9997,2 51778  53.2161 118.1722 0001441  90.6622 269.4535 15.08829398 73912,6917.913,95.438,540.775,538.781,0.0
51778.0,STARLINK-3615,PAYLOAD,2023-06-18 12:59:30,15.08834693,0.0001309,53.2164,116.3876,89.5631,270.5511,-5.9945e-05,-1.242e-05,0.0,0 STARLINK-3615,1 51778U 22017L   23169.54132076 -.00001242  00000-0 -59945-4 0  9996,2 51778  53.2164 116.3876 0001309  89.5631 270.5511 15.08834693 73972,6917.897,95.438,540.667,538.856,0.0
51778.0,STARLINK-3615,PAYLOAD,2023-06-18 20:56:25,15.08835097,0.0001193,53.2157,114.9005,89.149,270.9638,7.875e-06,-1.63e-06,0.0,0 STARLINK-3615,1 51778U 22017L   23169.87251922 -.00000163  00000-0  78750-5 0  9990,2 51778  53.2157 114.9005 0001193  89.1490 270.9638 15.08835097 72378,6917.895,95.438,540.586,538.935,0.0
51778.0,STARLINK-3615,PAYLOAD,2023-06-19 00:07:11,15.08838742,0.0001171,53.2157,114.3057,88.2087,271.9039,4.9515e-05,5e-06,0.0,0 STARLINK-3615,1 51778U 22017L   23170.00499591  .00000500  00000-0  49515-4 0  9993,2 51778  53.2157 114.3057 0001171  88.2087 271.9039 15.08838742 74049,6917.884,95.438,540.559,538.939,0.0
51778.0,STARLINK-3615,PAYLOAD,2023-06-19 06:28:43,15.08847454,0.000114,53.2161,113.1169,86.0915,274.0207,8.588e-05,1.079e-05,0.0,0 STARLINK-3615,1 51778U 22017L   23170.26995029  .00001079  00000-0  85880-4 0  9995,2 51778  53.2161 113.1169 0001140  86.0915 274.0207 15.08847454 74082,6917.858,95.437,540.511,538.934,0.0
51778.0,STARLINK-3615,PAYLOAD,2023-06-20 06:19:31,15.08840085,0.0001265,53.2169,108.6561,89.8545,270.2592,0.00022232,3.252e-05,0.0,0 STARLINK-3615,1 51778U 22017L   23171.26355509  .00003252  00000-0  22232-3 0  9995,2 51778  53.2169 108.6561 0001265  89.8545 270.2592 15.08840085 74238,6917.88,95.438,540.62,538.87,0.0
51778.0,STARLINK-3615,PAYLOAD,2023-06-20 12:41:04,15.08835633,0.0001376,53.2162,107.4669,78.389,281.7256,0.00013338,1.835e-05,0.0,0 STARLINK-3615,1 51778U 22017L   23171.52852176  .00001835  00000-0  13338-3 0  9998,2 51778  53.2162 107.4669 0001376  78.3890 281.7256 15.08835633 74277,6917.894,95.438,540.711,538.807,0.0
51778.0,STARLINK-3615,PAYLOAD,2023-06-21 12:31:51,15.08843885,0.0001371,53.2176,103.0079,85.1711,274.9438,4.2706e-06,-2.2e-06,0.0,0 STARLINK-3615,1 51778U 22017L   23172.52211970 -.00000220  00000-0  42706-5 0  9991,2 51778  53.2176 103.0079 0001371  85.1711 274.9438 15.08843885 72779,6917.869,95.437,540.682,538.785,0.0
51778.0,STARLINK-3615,PAYLOAD,2023-06-21 18:53:23,15.08840763,0.0001384,53.2173,101.8193,98.1816,261.9333,7.4026e-05,8.9e-06,0.0,0 STARLINK-3615,1 51778U 22017L   23172.78708061  .00000890  00000-0  74026-4 0  9992,2 51778  53.2173 101.8193 0001384  98.1816 261.9333 15.08840763 74463,6917.878,95.438,540.7,538.786,0.0
51778.0,STARLINK-3615,PAYLOAD,2023-06-22 04:25:41,15.08852653,0.0001305,53.2164,100.0361,90.7009,269.4132,0.00015325,2.153e-05,0.0,0 STARLINK-3615,1 51778U 22017L   23173.18451208  .00002153  00000-0  15325-3 0  9995,2 51778  53.2164 100.0361 0001305  90.7009 269.4132 15.08852653 74524,6917.842,95.437,540.609,538.804,0.0
51778.0,STARLINK-3615,PAYLOAD,2023-06-22 12:22:38,15.08837316,0.0001121,53.2161,98.5467,89.1799,270.9322,4.7349e-05,4.66e-06,0.0,0 STARLINK-3615,1 51778U 22017L   23173.51572027  .00000466  00000-0  47349-4 0  9992,2 51778  53.2161  98.5467 0001121  89.1799 270.9322 15.08837316 74575,6917.889,95.438,540.529,538.978,0.0
51778.0,STARLINK-3615,PAYLOAD,2023-06-24 04:07:16,15.08848791,0.000135,53.2157,91.11,108.5986,251.5153,0.00027195,4.044e-05,0.0,0 STARLINK-3615,1 51778U 22017L   23175.17171820  .00004044  00000-0  27195-3 0  9994,2 51778  53.2157  91.1100 0001350 108.5986 251.5153 15.08848791 74825,6917.854,95.437,540.652,538.785,0.0
51778.0,STARLINK-3615,PAYLOAD,2023-06-25 00:47:17,15.08847505,0.000131,53.2161,87.2469,99.9136,260.2004,0.00019757,2.858e-05,0.0,0 STARLINK-3615,1 51778U 22017L   23176.03283864  .00002858  00000-0  19757-3 0  9998,2 51778  53.2161  87.2469 0001310  99.9136 260.2004 15.08847505 74958,6917.857,95.437,540.629,538.816,0.0
51778.0,STARLINK-3615,PAYLOAD,2023-06-25 13:30:22,15.08840726,0.000122,53.2144,84.865,107.6405,252.472,7.3461e-05,8.81e-06,0.0,0 STARLINK-3615,1 51778U 22017L   23176.56275972  .00000881  00000-0  73461-4 0  9994,2 51778  53.2144  84.8650 0001220 107.6405 252.4720 15.08840726 75036,6917.878,95.438,540.587,538.899,0.0
51778.0,STARLINK-3615,PAYLOAD,2023-06-26 13:21:10,15.08831806,0.0001144,53.2167,80.4092,97.28,262.8322,3.0104e-05,1.91e-06,0.0,0 STARLINK-3615,1 51778U 22017L   23177.55636927  .00000191  00000-0  30104-4 0  9996,2 51778  53.2167  80.4092 0001144  97.2800 262.8322 15.08831806 75189,6917.905,95.438,540.562,538.979,0.0
51778.0,STARLINK-3615,PAYLOAD,2023-06-27 02:04:14,15.08842422,0.0001128,53.2158,78.0291,106.0387,254.073,5.8797e-05,6.48e-06,0.0,0 STARLINK-3615,1 51778U 22017L   23178.08628209  .00000648  00000-0  58797-4 0  9994,2 51778  53.2158  78.0291 0001128 106.0387 254.0730 15.08842422 75265,6917.873,95.437,540.518,538.958,0.0
51778.0,STARLINK-3615,PAYLOAD,2023-06-27 19:33:29,15.088316,0.0001087,53.2159,74.7584,101.9828,258.1286,7.0217e-05,8.3e-06,0.0,0 STARLINK-3615,1 51778U 22017L   23178.81493032  .00000830  00000-0  70217-4 0  9993,2 51778  53.2159  74.7584 0001087 101.9828 258.1286 15.08831600 75371,6917.906,95.438,540.523,539.019,0.0
51778.0,STARLINK-3615,PAYLOAD,2023-06-28 01:55:02,15.08842541,0.0001068,53.216,73.569,99.8679,260.2434,0.00017889,2.561e-05,0.0,0 STARLINK-3615,1 51778U 22017L   23179.07988607  .00002561  00000-0  17889-3 0  9997,2 51778  53.2160  73.5690 0001068  99.8679 260.2434 15.08842541 75416,6917.873,95.437,540.476,538.999,0.0
51778.0,STARLINK-3615,PAYLOAD,2023-06-29 01:45:49,15.08841607,0.0001054,53.2163,69.1078,94.3979,265.7133,0.00014341,1.995e-05,0.0,0 STARLINK-3615,1 51778U 22017L   23180.07348816  .00001995  00000-0  14341-3 0  9991,2 51778  53.2163  69.1078 0001054  94.3979 265.7133 15.08841607 75562,6917.875,95.437,540.47,539.011,0.0
51778.0,STARLINK-3615,PAYLOAD,2023-06-29 16:04:17,15.08838353,0.0001167,53.2162,66.433,83.9416,276.1709,0.00012466,1.697e-05,0.0,0 STARLINK-3615,1 51778U 22017L   23180.66965155  .00001697  00000-0  12466-3 0  9992,2 51778  53.2162  66.4330 0001167  83.9416 276.1709 15.08838353 75656,6917.885,95.438,540.558,538.943,0.0
